NORAD_CAT_ID,OBJECT_NAME,OBJECT_TYPE,EPOCH,MEAN_MOTION,ECCENTRICITY,INCLINATION,RA_OF_ASC_NODE,ARG_OF_PERICENTER,MEAN_ANOMALY,BSTAR,MEAN_MOTION_DOT,MEAN_MOTION_DDOT,TLE_LINE0,TLE_LINE1,TLE_LINE2,SEMIMAJOR_AXIS,PERIOD,APOGEE,PERIGEE,DECAYED
53409.0,STARLINK-4490,PAYLOAD,2023-06-20 12:04:41,15.08839874,0.0001006,53.2154,242.9039,71.661,288.4492,-2.0101e-05,-6.08e-06,0.0,0 STARLINK-4490,1 53409U 22097X   23171.50325785 -.00000608  00000-0 -20101-4 0  9994,2 53409  53.2154 242.9039 0001006  71.6610 288.4492 15.08839874 48855,6917.881,95.438,540.442,539.05,0.0
53409.0,STARLINK-4490,PAYLOAD,2023-06-20 15:15:27,15.08840399,0.0001012,53.2153,242.3089,83.0102,277.1005,-7.7195e-06,-4.11e-06,0.0,0 STARLINK-4490,1 53409U 22097X   23171.63573687 -.00000411  00000-0 -77195-5 0  9992,2 53409  53.2153 242.3089 0001012  83.0102 277.1005 15.08840399 48380,6917.879,95.438,540.444,539.044,0.0
53409.0,STARLINK-4490,PAYLOAD,2023-06-21 11:55:28,15.08841703,9.95e-05,53.2155,238.4431,78.193,281.9174,5.6506e-05,6.12e-06,0.0,0 STARLINK-4490,1 53409U 22097X   23172.49685556  .00000612  00000-0  56506-4 0  9999,2 53409  53.2155 238.4431 0000995  78.1930 281.9174 15.08841703 49002,6917.875,95.437,540.429,539.052,0.0
53409.0,STARLINK-4490,PAYLOAD,2023-06-21 23:03:10,15.08835005,0.0001046,53.2156,236.362,83.2681,276.843,0.00013605,1.878e-05,0.0,0 STARLINK-4490,1 53409U 22097X   23172.96053837  .00001878  00000-0  13605-3 0  9999,2 53409  53.2156 236.3620 0001046  83.2681 276.8430 15.08835005 48586,6917.896,95.438,540.484,539.037,0.0
53409.0,STARLINK-4490,PAYLOAD,2023-06-23 10:01:39,15.08839833,9.12e-05,53.2154,229.8191,83.3526,276.757,2.4292e-05,9.9e-07,0.0,0 STARLINK-4490,1 53409U 22097X   23174.41782022  .00000099  00000-0  24292-4 0  9995,2 53409  53.2154 229.8191 0000912  83.3526 276.7570 15.08839833 48806,6917.881,95.438,540.377,539.115,0.0
53409.0,STARLINK-4490,PAYLOAD,2023-06-24 22:35:31,15.0884091,8.63e-05,53.215,222.9795,105.6587,254.45,6.894e-05,8.1e-06,0.0,0 STARLINK-4490,1 53409U 22097X   23175.94133695  .00000810  00000-0  68940-4 0  9999,2 53409  53.2150 222.9795 0000863 105.6587 254.4500 15.08840910 49036,6917.878,95.437,540.34,539.146,0.0
53409.0,STARLINK-4490,PAYLOAD,2023-06-26 01:37:05,15.08834781,0.0001005,53.2146,217.9236,90.813,269.2978,4.0378e-05,3.55e-06,0.0,0 STARLINK-4490,1 53409U 22097X   23177.06742266  .00000355  00000-0  40378-4 0  9993,2 53409  53.2146 217.9236 0001005  90.8130 269.2978 15.08834781 49204,6917.896,95.438,540.457,539.066,0.0
53409.0,STARLINK-4490,PAYLOAD,2023-06-27 03:03:15,15.08833914,9.02e-05,53.2153,213.1673,82.6668,277.4427,1.9218e-05,1.8e-07,0.0,0 STARLINK-4490,1 53409U 22097X   23178.12726474  .00000018  00000-0  19218-4 0  9999,2 53409  53.2153 213.1673 0000902  82.6668 277.4427 15.08833914 49369,6917.899,95.438,540.388,539.14,0.0
53409.0,STARLINK-4490,PAYLOAD,2023-06-28 09:15:35,15.08833332,9.87e-05,53.2153,207.5171,91.6483,268.4623,9.5186e-05,1.227e-05,0.0,0 STARLINK-4490,1 53409U 22097X   23179.38582626  .00001227  00000-0  95186-4 0  9998,2 53409  53.2153 207.5171 0000987  91.6483 268.4623 15.08833332 49550,6917.901,95.438,540.449,539.083,0.0
53409.0,STARLINK-4490,PAYLOAD,2023-06-29 10:41:45,15.08835645,9.99e-05,53.2151,202.7577,87.3408,272.7698,4.8261e-05,4.8e-06,0.0,0 STARLINK-4490,1 53409U 22097X   23180.44566857  .00000480  00000-0  48261-4 0  9997,2 53409  53.2151 202.7577 0000999  87.3408 272.7698 15.08835645 49714,6917.894,95.438,540.45,539.068,0.0
53409.0,STARLINK-4490,PAYLOAD,2023-06-30 21:40:14,15.08838156,0.0001,53.2151,196.2163,83.6617,276.4489,4.7581e-05,4.7e-06,0.0,0 STARLINK-4490,1 53409U 22097X   23181.90294664  .00000470  00000-0  47581-4 0  9996,2 53409  53.2151 196.2163 0001000  83.6617 276.4489 15.08838156 49930,6917.886,95.438,540.443,539.059,0.0
53409.0,STARLINK-4490,PAYLOAD,2023-07-02 07:03:20,15.08842064,0.0001007,53.2152,189.9713,83.3664,276.7442,1.49e-05,-5.1e-07,0.0,0 STARLINK-4490,1 53409U 22097X   23183.29398450 -.00000051  00000-0  14900-4 0  9993,2 53409  53.2152 189.9713 0001007  83.3664 276.7442 15.08842064 50147,6917.874,95.437,540.436,539.042,0.0
53409.0,STARLINK-4490,PAYLOAD,2023-07-03 00:32:35,15.08835432,9.98e-05,53.2151,186.7007,81.0416,279.0689,5.5368e-06,-2e-06,0.0,0 STARLINK-4490,1 53409U 22097X   23184.02262890 -.00000200  00000-0  55368-5 0  9993,2 53409  53.2151 186.7007 0000998  81.0416 279.0689 15.08835432 50257,6917.894,95.438,540.45,539.069,0.0
53409.0,STARLINK-4490,PAYLOAD,2023-07-04 01:58:45,15.08837668,0.0001033,53.2153,181.9428,81.7667,278.3442,7.1902e-06,-1.73e-06,0.0,0 STARLINK-4490,1 53409U 22097X   23185.08246893 -.00000173  00000-0  71902-5 0  9996,2 53409  53.2153 181.9428 0001033  81.7667 278.3442 15.08837668 50419,6917.888,95.438,540.467,539.038,0.0
53409.0,STARLINK-4490,PAYLOAD,2023-07-05 08:11:05,15.08836632,0.0001065,53.2156,176.2927,83.2725,276.8389,4.5992e-05,4.44e-06,0.0,0 STARLINK-4490,1 53409U 22097X   23186.34103075  .00000444  00000-0  45992-4 0  9999,2 53409  53.2156 176.2927 0001065  83.2725 276.8389 15.08836632 50604,6917.891,95.438,540.492,539.019,0.0
53409.0,STARLINK-4490,PAYLOAD,2023-07-06 15:58:48,15.08837413,0.0001099,53.2157,170.3456,85.7702,274.3415,3.0567e-05,1.99e-06,0.0,0 STARLINK-4490,1 53409U 22097X   23187.66583500  .00000199  00000-0  30567-4 0  9999,2 53409  53.2157 170.3456 0001099  85.7702 274.3415 15.08837413 50809,6917.888,95.438,540.514,538.993,0.0
53409.0,STARLINK-4490,PAYLOAD,2023-07-07 19:00:21,15.08838679,0.0001179,53.2159,165.2897,87.0685,273.0442,6.7262e-05,7.83e-06,0.0,0 STARLINK-4490,1 53409U 22097X   23188.79191395  .00000783  00000-0  67262-4 0  9992,2 53409  53.2159 165.2897 0001179  87.0685 273.0442 15.08838679 50976,6917.884,95.438,540.565,538.934,0.0
53409.0,STARLINK-4490,PAYLOAD,2023-07-09 04:23:27,15.08838503,0.0001223,53.2161,159.0448,89.5255,270.5877,-6.0861e-06,-3.85e-06,0.0,0 STARLINK-4490,1 53409U 22097X   23190.18295631 -.00000385  00000-0 -60861-5 0  9995,2 53409  53.2161 159.0448 0001223  89.5255 270.5877 15.08838503 51186,6917.885,95.438,540.596,538.904,0.0
53409.0,STARLINK-4490,PAYLOAD,2023-07-10 07:25:00,15.08844747,0.0001393,53.2159,153.9903,109.6569,250.4574,3.3198e-05,2.41e-06,0.0,0 STARLINK-4490,1 53409U 22097X   23191.30903081  .00000241  00000-0  33198-4 0  9996,2 53409  53.2159 153.9903 0001393 109.6569 250.4574 15.08844747 51359,6917.866,95.437,540.695,538.767,0.0
53409.0,STARLINK-4490,PAYLOAD,2023-07-11 07:15:47,15.08838097,0.0001422,53.216,149.5303,90.1014,270.0141,6.4833e-05,7.44e-06,0.0,0 STARLINK-4490,1 53409U 22097X   23192.30263679  .00000744  00000-0  64833-4 0  9997,2 53409  53.2160 149.5303 0001422  90.1014 270.0141 15.08838097 51504,6917.886,95.438,540.735,538.767,0.0
53409.0,STARLINK-4490,PAYLOAD,2023-07-12 13:28:07,15.08838642,0.000124,53.2154,143.8797,90.4135,269.6999,2.5203e-05,1.13e-06,0.0,0 STARLINK-4490,1 53409U 22097X   23193.56119887  .00000113  00000-0  25203-4 0  9995,2 53409  53.2154 143.8797 0001240  90.4135 269.6999 15.08838642 51697,6917.885,95.438,540.607,538.892,0.0
53409.0,STARLINK-4490,PAYLOAD,2023-07-14 02:02:00,15.08834228,0.0001391,53.2163,137.0407,91.9239,268.1913,-4.5935e-05,-1.019e-05,0.0,0 STARLINK-4490,1 53409U 22097X   23195.08472815 -.00001019  00000-0 -45935-4 0  9999,2 53409  53.2163 137.0407 0001391  91.9239 268.1913 15.08834228 51920,6917.898,95.438,540.725,538.801,0.0
53409.0,STARLINK-4490,PAYLOAD,2023-07-15 01:52:46,15.088462,0.0001583,53.2168,132.58,113.5586,246.5573,0.00013409,1.847e-05,0.0,0 STARLINK-4490,1 53409U 22097X   23196.07831641  .00001847  00000-0  13409-3 0  9992,2 53409  53.2168 132.5800 0001583 113.5586 246.5573 15.08846200 52073,6917.861,95.437,540.822,538.631,0.0
53409.0,STARLINK-4490,PAYLOAD,2023-07-15 19:22:02,15.08833364,0.0001529,53.2165,129.3092,86.4496,273.6672,9.627e-05,1.244e-05,0.0,0 STARLINK-4490,1 53409U 22097X   23196.80696927  .00001244  00000-0  96270-4 0  9998,2 53409  53.2165 129.3092 0001529  86.4496 273.6672 15.08833364 52185,6917.901,95.438,540.823,538.708,0.0
53409.0,STARLINK-4490,PAYLOAD,2023-07-16 12:51:16,15.08839744,0.0001425,53.2155,126.0374,88.7384,271.3771,0.00011508,1.544e-05,0.0,0 STARLINK-4490,1 53409U 22097X   23197.53560769  .00001544  00000-0  11508-3 0  9996,2 53409  53.2155 126.0374 0001425  88.7384 271.3771 15.08839744 52292,6917.881,95.438,540.732,538.76,0.0
53409.0,STARLINK-4490,PAYLOAD,2023-07-17 23:49:45,15.08838778,0.0001495,53.2157,119.4934,93.9565,266.1598,0.00050267,7.721e-05,0.0,0 STARLINK-4490,1 53409U 22097X   23198.99288809  .00007721  00000-0  50267-3 0  9997,2 53409  53.2157 119.4934 0001495  93.9565 266.1598 15.08838778 52518,6917.884,95.438,540.783,538.715,0.0
53409.0,STARLINK-4490,PAYLOAD,2023-07-18 04:35:54,15.08851368,0.0001234,53.2167,118.5993,94.4243,265.689,0.00029113,4.35e-05,0.0,0 STARLINK-4490,1 53409U 22097X   23199.19160102  .00004350  00000-0  29113-3 0  9996,2 53409  53.2167 118.5993 0001234  94.4243 265.6890 15.08851368 52546,6917.846,95.437,540.564,538.857,0.0
53409.0,STARLINK-4490,PAYLOAD,2023-07-18 23:40:32,15.08839402,0.0001771,53.2152,115.0322,114.2708,245.8469,-2.7089e-05,-7.19e-06,0.0,0 STARLINK-4490,1 53409U 22097X   23199.98648347 -.00000719  00000-0 -27089-4 0  9993,2 53409  53.2152 115.0322 0001771 114.2708 245.8469 15.08839402 52661,6917.882,95.438,540.972,538.522,0.0
53409.0,STARLINK-4490,PAYLOAD,2023-07-20 02:42:05,15.08843635,0.000113,53.2159,109.9814,102.4082,257.7037,8.2491e-05,1.025e-05,0.0,0 STARLINK-4490,1 53409U 22097X   23201.11256672  .00001025  00000-0  82491-4 0  9995,2 53409  53.2159 109.9814 0001130 102.4082 257.7037 15.08843635 52834,6917.869,95.437,540.516,538.953,0.0
53409.0,STARLINK-4490,PAYLOAD,2023-07-21 02:32:53,15.0883654,0.0001109,53.2156,105.5193,86.7523,273.3596,0.00017574,2.51e-05,0.0,0 STARLINK-4490,1 53409U 22097X   23202.10617433  .00002510  00000-0  17574-3 0  9990,2 53409  53.2156 105.5193 0001109  86.7523 273.3596 15.08836540 52980,6917.891,95.438,540.523,538.989,0.0
